ERS-1                   
1 21574U 91050A   26095.31986600  .00000468  00000+0  16410-3 0  9991
2 21574  98.7858 114.2217 0032960 122.3647 238.0737 14.39471482819561
ARIANE 40 R/B           
1 21610U 91050F   26095.16878399  .00000451  00000+0  14747-3 0  9993
2 21610  98.1957 146.4043 0003096  19.0902 341.0405 14.42914528822810
INTERCOSMOS 25          
1 21819U 91086A   26095.07198792  .00002097  00000+0  40541-3 0  9994
2 21819  82.6000 294.0566 1486276  60.0892 313.9489 12.12095332499883
SL-8 R/B                
1 21876U 92008B   26095.21361171  .00000030  00000+0  14533-4 0  9999
2 21876  82.9244 248.0427 0035750  61.8235 112.2171 13.75969911713060
SL-8 R/B                
1 21938U 92020B   26095.24420741  .00000015  00000+0 -24071-6 0  9998
2 21938  82.9290 134.0435 0028089 221.3775 210.5397 13.75550691704784
USA 81                  
1 21949U 92023A   26095.13480138  .00000210  00000+0  70374-4 0  9998
2 21949  85.0038 116.1778 0001492  70.7894 289.3460 14.32377099 98579
COSMOS 2219             
1 22219U 92076A   26094.97703742 -.00000160  00000+0 -59165-4 0  9998
2 22219  71.0606 323.1200 0017646 167.1102 193.0475 14.14088606722098
SL-16 R/B               
1 22220U 92076B   26095.31573645 -.00000078  00000+0 -15236-4 0  9995
2 22220  70.9982 132.2897 0010968  47.5317  29.4466 14.16862570725609
COSMOS 2221             
1 22236U 92080A   26095.18686919  .00003428  00000+0  30023-3 0  9991
2 22236  82.5018 253.6909 0015673 102.8069 257.4906 14.96325949784759
SL-16 R/B               
1 22285U 92093B   26094.95806832 -.00000097  00000+0 -25169-4 0  9998
2 22285  71.0219 309.1238 0006652 268.5525  91.4836 14.15456107716873
COSMOS 2228             
1 22286U 92094A   26095.31912544  .00003708  00000+0  31643-3 0  9992
2 22286  82.5200 211.8142 0017301 208.1811 151.8477 14.97342996780047
SL-16 R/B               
1 22566U 93016B   26095.14249754  .00000352  00000+0  20511-3 0  9999
2 22566  71.0072 159.6266 0012408 280.3758  79.5966 14.15309200705912
