CCSDS_OMM_VERS = 2.0
CREATION_DATE  = 
ORIGINATOR     = 

OBJECT_NAME    = ERS-1
OBJECT_ID      = 1991-050A
CENTER_NAME    = EARTH
REF_FRAME      = TEME
TIME_SYSTEM    = UTC
MEAN_ELEMENT_THEORY = SGP/SGP4

EPOCH          = 2026-04-05T07:40:36.422400
MEAN_MOTION    = 14.39471482
ECCENTRICITY   = .003296
INCLINATION    = 98.7858
RA_OF_ASC_NODE = 114.2217
ARG_OF_PERICENTER = 122.3647
MEAN_ANOMALY   = 238.0737

EPHEMERIS_TYPE = 0
CLASSIFICATION_TYPE = U
NORAD_CAT_ID   = 21574
ELEMENT_SET_NO = 999
REV_AT_EPOCH   = 81956
BSTAR          = .16409812E-3
MEAN_MOTION_DOT = .468E-5
MEAN_MOTION_DDOT = 0

CCSDS_OMM_VERS = 2.0
CREATION_DATE  = 
ORIGINATOR     = 

OBJECT_NAME    = ARIANE 40 R/B
OBJECT_ID      = 1991-050F
CENTER_NAME    = EARTH
REF_FRAME      = TEME
TIME_SYSTEM    = UTC
MEAN_ELEMENT_THEORY = SGP/SGP4

EPOCH          = 2026-04-05T04:03:02.936736
MEAN_MOTION    = 14.42914528
ECCENTRICITY   = .00030966
INCLINATION    = 98.1957
RA_OF_ASC_NODE = 146.4043
ARG_OF_PERICENTER = 19.0902
MEAN_ANOMALY   = 341.0405

EPHEMERIS_TYPE = 0
CLASSIFICATION_TYPE = U
NORAD_CAT_ID   = 21610
ELEMENT_SET_NO = 999
REV_AT_EPOCH   = 82281
BSTAR          = .14746849E-3
MEAN_MOTION_DOT = .451E-5
MEAN_MOTION_DDOT = 0

CCSDS_OMM_VERS = 2.0
CREATION_DATE  = 
ORIGINATOR     = 

OBJECT_NAME    = INTERCOSMOS 25
OBJECT_ID      = 1991-086A
CENTER_NAME    = EARTH
REF_FRAME      = TEME
TIME_SYSTEM    = UTC
MEAN_ELEMENT_THEORY = SGP/SGP4

EPOCH          = 2026-04-05T01:43:39.756288
MEAN_MOTION    = 12.12095332
ECCENTRICITY   = .14862761
INCLINATION    = 82.6000
RA_OF_ASC_NODE = 294.0566
ARG_OF_PERICENTER = 60.0892
MEAN_ANOMALY   = 313.9489

EPHEMERIS_TYPE = 0
CLASSIFICATION_TYPE = U
NORAD_CAT_ID   = 21819
ELEMENT_SET_NO = 999
REV_AT_EPOCH   = 49988
BSTAR          = .40540811E-3
MEAN_MOTION_DOT = .2097E-4
MEAN_MOTION_DDOT = 0

CCSDS_OMM_VERS = 2.0
CREATION_DATE  = 
ORIGINATOR     = 

OBJECT_NAME    = SL-8 R/B
OBJECT_ID      = 1992-008B
CENTER_NAME    = EARTH
REF_FRAME      = TEME
TIME_SYSTEM    = UTC
MEAN_ELEMENT_THEORY = SGP/SGP4

EPOCH          = 2026-04-05T05:07:36.051744
MEAN_MOTION    = 13.75969911
ECCENTRICITY   = .00357506
INCLINATION    = 82.9244
RA_OF_ASC_NODE = 248.0427
ARG_OF_PERICENTER = 61.8235
MEAN_ANOMALY   = 112.2171

EPHEMERIS_TYPE = 0
CLASSIFICATION_TYPE = U
NORAD_CAT_ID   = 21876
ELEMENT_SET_NO = 999
REV_AT_EPOCH   = 71306
BSTAR          = .14532633E-4
MEAN_MOTION_DOT = .3E-6
MEAN_MOTION_DDOT = 0

CCSDS_OMM_VERS = 2.0
CREATION_DATE  = 
ORIGINATOR     = 

OBJECT_NAME    = SL-8 R/B
OBJECT_ID      = 1992-020B
CENTER_NAME    = EARTH
REF_FRAME      = TEME
TIME_SYSTEM    = UTC
MEAN_ELEMENT_THEORY = SGP/SGP4

EPOCH          = 2026-04-05T05:51:39.520224
MEAN_MOTION    = 13.75550691
ECCENTRICITY   = .00280896
INCLINATION    = 82.9290
RA_OF_ASC_NODE = 134.0435
ARG_OF_PERICENTER = 221.3775
MEAN_ANOMALY   = 210.5397

EPHEMERIS_TYPE = 0
CLASSIFICATION_TYPE = U
NORAD_CAT_ID   = 21938
ELEMENT_SET_NO = 999
REV_AT_EPOCH   = 70478
BSTAR          = -.240705E-6
MEAN_MOTION_DOT = .15E-6
MEAN_MOTION_DDOT = 0

CCSDS_OMM_VERS = 2.0
CREATION_DATE  = 
ORIGINATOR     = 

OBJECT_NAME    = USA 81
OBJECT_ID      = 1992-023A
CENTER_NAME    = EARTH
REF_FRAME      = TEME
TIME_SYSTEM    = UTC
MEAN_ELEMENT_THEORY = SGP/SGP4

EPOCH          = 2026-04-05T03:14:06.839232
MEAN_MOTION    = 14.32377099
ECCENTRICITY   = .00014926
INCLINATION    = 85.0038
RA_OF_ASC_NODE = 116.1778
ARG_OF_PERICENTER = 70.7894
MEAN_ANOMALY   = 289.3460

EPHEMERIS_TYPE = 0
CLASSIFICATION_TYPE = U
NORAD_CAT_ID   = 21949
ELEMENT_SET_NO = 999
REV_AT_EPOCH   = 9857
BSTAR          = .70374325E-4
MEAN_MOTION_DOT = .21E-5
MEAN_MOTION_DDOT = 0

CCSDS_OMM_VERS = 2.0
CREATION_DATE  = 
ORIGINATOR     = 

OBJECT_NAME    = COSMOS 2219
OBJECT_ID      = 1992-076A
CENTER_NAME    = EARTH
REF_FRAME      = TEME
TIME_SYSTEM    = UTC
MEAN_ELEMENT_THEORY = SGP/SGP4

EPOCH          = 2026-04-04T23:26:56.033088
MEAN_MOTION    = 14.14088606
ECCENTRICITY   = .00176463
INCLINATION    = 71.0606
RA_OF_ASC_NODE = 323.1200
ARG_OF_PERICENTER = 167.1102
MEAN_ANOMALY   = 193.0475

EPHEMERIS_TYPE = 0
CLASSIFICATION_TYPE = U
NORAD_CAT_ID   = 22219
ELEMENT_SET_NO = 999
REV_AT_EPOCH   = 72209
BSTAR          = -.5916546E-4
MEAN_MOTION_DOT = -.16E-5
MEAN_MOTION_DDOT = 0

CCSDS_OMM_VERS = 2.0
CREATION_DATE  = 
ORIGINATOR     = 

OBJECT_NAME    = SL-16 R/B
OBJECT_ID      = 1992-076B
CENTER_NAME    = EARTH
REF_FRAME      = TEME
TIME_SYSTEM    = UTC
MEAN_ELEMENT_THEORY = SGP/SGP4

EPOCH          = 2026-04-05T07:34:39.629280
MEAN_MOTION    = 14.16862570
ECCENTRICITY   = .00109686
INCLINATION    = 70.9982
RA_OF_ASC_NODE = 132.2897
ARG_OF_PERICENTER = 47.5317
MEAN_ANOMALY   = 29.4466

EPHEMERIS_TYPE = 0
CLASSIFICATION_TYPE = U
NORAD_CAT_ID   = 22220
ELEMENT_SET_NO = 999
REV_AT_EPOCH   = 72560
BSTAR          = -.15235973E-4
MEAN_MOTION_DOT = -.78E-6
MEAN_MOTION_DDOT = 0

CCSDS_OMM_VERS = 2.0
CREATION_DATE  = 
ORIGINATOR     = 

OBJECT_NAME    = COSMOS 2221
OBJECT_ID      = 1992-080A
CENTER_NAME    = EARTH
REF_FRAME      = TEME
TIME_SYSTEM    = UTC
MEAN_ELEMENT_THEORY = SGP/SGP4

EPOCH          = 2026-04-05T04:29:05.498016
MEAN_MOTION    = 14.96325949
ECCENTRICITY   = .00156731
INCLINATION    = 82.5018
RA_OF_ASC_NODE = 253.6909
ARG_OF_PERICENTER = 102.8069
MEAN_ANOMALY   = 257.4906

EPHEMERIS_TYPE = 0
CLASSIFICATION_TYPE = U
NORAD_CAT_ID   = 22236
ELEMENT_SET_NO = 999
REV_AT_EPOCH   = 78475
BSTAR          = .30023176E-3
MEAN_MOTION_DOT = .3428E-4
MEAN_MOTION_DDOT = 0

CCSDS_OMM_VERS = 2.0
CREATION_DATE  = 
ORIGINATOR     = 

OBJECT_NAME    = SL-16 R/B
OBJECT_ID      = 1992-093B
CENTER_NAME    = EARTH
REF_FRAME      = TEME
TIME_SYSTEM    = UTC
MEAN_ELEMENT_THEORY = SGP/SGP4

EPOCH          = 2026-04-04T22:59:37.102848
MEAN_MOTION    = 14.15456107
ECCENTRICITY   = .00066525
INCLINATION    = 71.0219
RA_OF_ASC_NODE = 309.1238
ARG_OF_PERICENTER = 268.5525
MEAN_ANOMALY   = 91.4836

EPHEMERIS_TYPE = 0
CLASSIFICATION_TYPE = U
NORAD_CAT_ID   = 22285
ELEMENT_SET_NO = 999
REV_AT_EPOCH   = 71687
BSTAR          = -.2516888E-4
MEAN_MOTION_DOT = -.97E-6
MEAN_MOTION_DDOT = 0

CCSDS_OMM_VERS = 2.0
CREATION_DATE  = 
ORIGINATOR     = 

OBJECT_NAME    = COSMOS 2228
OBJECT_ID      = 1992-094A
CENTER_NAME    = EARTH
REF_FRAME      = TEME
TIME_SYSTEM    = UTC
MEAN_ELEMENT_THEORY = SGP/SGP4

EPOCH          = 2026-04-05T07:39:32.438016
MEAN_MOTION    = 14.97342996
ECCENTRICITY   = .00173012
INCLINATION    = 82.5200
RA_OF_ASC_NODE = 211.8142
ARG_OF_PERICENTER = 208.1811
MEAN_ANOMALY   = 151.8477

EPHEMERIS_TYPE = 0
CLASSIFICATION_TYPE = U
NORAD_CAT_ID   = 22286
ELEMENT_SET_NO = 999
REV_AT_EPOCH   = 78004
BSTAR          = .31643441E-3
MEAN_MOTION_DOT = .3708E-4
MEAN_MOTION_DDOT = 0

CCSDS_OMM_VERS = 2.0
CREATION_DATE  = 
ORIGINATOR     = 

OBJECT_NAME    = SL-16 R/B
OBJECT_ID      = 1993-016B
CENTER_NAME    = EARTH
REF_FRAME      = TEME
TIME_SYSTEM    = UTC
MEAN_ELEMENT_THEORY = SGP/SGP4

EPOCH          = 2026-04-05T03:25:11.787456
MEAN_MOTION    = 14.15309200
ECCENTRICITY   = .00124088
INCLINATION    = 71.0072
RA_OF_ASC_NODE = 159.6266
ARG_OF_PERICENTER = 280.3758
MEAN_ANOMALY   = 79.5966

EPHEMERIS_TYPE = 0
CLASSIFICATION_TYPE = U
NORAD_CAT_ID   = 22566
ELEMENT_SET_NO = 999
REV_AT_EPOCH   = 70591
BSTAR          = .20511117E-3
MEAN_MOTION_DOT = .352E-5
MEAN_MOTION_DDOT = 0

